CCSDS_OMM_VERS = 2.0
CREATION_DATE  = 
ORIGINATOR     = 

OBJECT_NAME    = PAYLOAD ADAPTER
OBJECT_ID      = 2025-255B
CENTER_NAME    = EARTH
REF_FRAME      = TEME
TIME_SYSTEM    = UTC
MEAN_ELEMENT_THEORY = SGP/SGP4

EPOCH          = 2025-11-20T18:44:35.312064
MEAN_MOTION    = 15.42428796
ECCENTRICITY   = .0014245
INCLINATION    = 52.9971
RA_OF_ASC_NODE = 282.3247
ARG_OF_PERICENTER = 330.6895
MEAN_ANOMALY   = 29.3309

EPHEMERIS_TYPE = 0
CLASSIFICATION_TYPE = U
NORAD_CAT_ID   = 66377
ELEMENT_SET_NO = 999
REV_AT_EPOCH   = 182
BSTAR          = .80194E-3
MEAN_MOTION_DOT = .35082E-3
MEAN_MOTION_DDOT = 0

CCSDS_OMM_VERS = 2.0
CREATION_DATE  = 
ORIGINATOR     = 

OBJECT_NAME    = SHIYAN-32 02
OBJECT_ID      = 2025-255C
CENTER_NAME    = EARTH
REF_FRAME      = TEME
TIME_SYSTEM    = UTC
MEAN_ELEMENT_THEORY = SGP/SGP4

EPOCH          = 2025-11-20T17:08:23.601120
MEAN_MOTION    = 15.42729505
ECCENTRICITY   = .0013646
INCLINATION    = 52.9984
RA_OF_ASC_NODE = 282.6203
ARG_OF_PERICENTER = 334.4828
MEAN_ANOMALY   = 25.5500

EPHEMERIS_TYPE = 0
CLASSIFICATION_TYPE = U
NORAD_CAT_ID   = 66378
ELEMENT_SET_NO = 999
REV_AT_EPOCH   = 181
BSTAR          = .84574E-3
MEAN_MOTION_DOT = .374E-3
MEAN_MOTION_DDOT = 0

CCSDS_OMM_VERS = 2.0
CREATION_DATE  = 
ORIGINATOR     = 

OBJECT_NAME    = SHIYAN-32 03
OBJECT_ID      = 2025-255D
CENTER_NAME    = EARTH
REF_FRAME      = TEME
TIME_SYSTEM    = UTC
MEAN_ELEMENT_THEORY = SGP/SGP4

EPOCH          = 2025-11-20T14:05:58.195104
MEAN_MOTION    = 15.42031369
ECCENTRICITY   = .0015048
INCLINATION    = 52.9976
RA_OF_ASC_NODE = 283.2539
ARG_OF_PERICENTER = 333.1783
MEAN_ANOMALY   = 26.8441

EPHEMERIS_TYPE = 0
CLASSIFICATION_TYPE = U
NORAD_CAT_ID   = 66379
ELEMENT_SET_NO = 999
REV_AT_EPOCH   = 181
BSTAR          = .44153E-3
MEAN_MOTION_DOT = .18836E-3
MEAN_MOTION_DDOT = 0

CCSDS_OMM_VERS = 2.0
CREATION_DATE  = 
ORIGINATOR     = 

OBJECT_NAME    = STARLINK-35139
OBJECT_ID      = 2025-257A
CENTER_NAME    = EARTH
REF_FRAME      = TEME
TIME_SYSTEM    = UTC
MEAN_ELEMENT_THEORY = SGP/SGP4

EPOCH          = 2025-11-20T14:40:53.465088
MEAN_MOTION    = 15.81347447
ECCENTRICITY   = .0000725
INCLINATION    = 53.1536
RA_OF_ASC_NODE = 10.7780
ARG_OF_PERICENTER = 79.4407
MEAN_ANOMALY   = 280.6697

EPHEMERIS_TYPE = 0
CLASSIFICATION_TYPE = U
NORAD_CAT_ID   = 66380
ELEMENT_SET_NO = 999
REV_AT_EPOCH   = 287
BSTAR          = -.21077E-2
MEAN_MOTION_DOT = -.406542E-2
MEAN_MOTION_DDOT = 0

CCSDS_OMM_VERS = 2.0
CREATION_DATE  = 
ORIGINATOR     = 

OBJECT_NAME    = STARLINK-35158
OBJECT_ID      = 2025-257B
CENTER_NAME    = EARTH
REF_FRAME      = TEME
TIME_SYSTEM    = UTC
MEAN_ELEMENT_THEORY = SGP/SGP4

EPOCH          = 2025-11-20T02:31:58.570464
MEAN_MOTION    = 15.84875027
ECCENTRICITY   = .00015812
INCLINATION    = 53.1531
RA_OF_ASC_NODE = 13.3095
ARG_OF_PERICENTER = 85.8181
MEAN_ANOMALY   = 274.3024

EPHEMERIS_TYPE = 0
CLASSIFICATION_TYPE = U
NORAD_CAT_ID   = 66381
ELEMENT_SET_NO = 999
REV_AT_EPOCH   = 285
BSTAR          = .28066681E-2
MEAN_MOTION_DOT = .726447E-2
MEAN_MOTION_DDOT = 0

CCSDS_OMM_VERS = 2.0
CREATION_DATE  = 
ORIGINATOR     = 

OBJECT_NAME    = STARLINK-35639
OBJECT_ID      = 2025-257C
CENTER_NAME    = EARTH
REF_FRAME      = TEME
TIME_SYSTEM    = UTC
MEAN_ELEMENT_THEORY = SGP/SGP4

EPOCH          = 2025-11-20T16:10:54.474240
MEAN_MOTION    = 15.81095725
ECCENTRICITY   = .0000334
INCLINATION    = 53.1531
RA_OF_ASC_NODE = 10.4556
ARG_OF_PERICENTER = 68.3805
MEAN_ANOMALY   = 291.7253

EPHEMERIS_TYPE = 0
CLASSIFICATION_TYPE = U
NORAD_CAT_ID   = 66382
ELEMENT_SET_NO = 999
REV_AT_EPOCH   = 294
BSTAR          = -.26999E-2
MEAN_MOTION_DOT = -.508529E-2
MEAN_MOTION_DDOT = 0

CCSDS_OMM_VERS = 2.0
CREATION_DATE  = 
ORIGINATOR     = 

OBJECT_NAME    = STARLINK-35690
OBJECT_ID      = 2025-257D
CENTER_NAME    = EARTH
REF_FRAME      = TEME
TIME_SYSTEM    = UTC
MEAN_ELEMENT_THEORY = SGP/SGP4

EPOCH          = 2025-11-20T16:09:24.537888
MEAN_MOTION    = 15.80906126
ECCENTRICITY   = .0001073
INCLINATION    = 53.1530
RA_OF_ASC_NODE = 10.4476
ARG_OF_PERICENTER = 96.2991
MEAN_ANOMALY   = 263.8154

EPHEMERIS_TYPE = 0
CLASSIFICATION_TYPE = U
NORAD_CAT_ID   = 66383
ELEMENT_SET_NO = 999
REV_AT_EPOCH   = 294
BSTAR          = -.27437E-2
MEAN_MOTION_DOT = -.512128E-2
MEAN_MOTION_DDOT = 0

CCSDS_OMM_VERS = 2.0
CREATION_DATE  = 
ORIGINATOR     = 

OBJECT_NAME    = STARLINK-35662
OBJECT_ID      = 2025-257E
CENTER_NAME    = EARTH
REF_FRAME      = TEME
TIME_SYSTEM    = UTC
MEAN_ELEMENT_THEORY = SGP/SGP4

EPOCH          = 2025-11-20T14:37:49.511712
MEAN_MOTION    = 15.81044888
ECCENTRICITY   = .0000737
INCLINATION    = 53.1528
RA_OF_ASC_NODE = 10.7618
ARG_OF_PERICENTER = 107.9006
MEAN_ANOMALY   = 252.2097

EPHEMERIS_TYPE = 0
CLASSIFICATION_TYPE = U
NORAD_CAT_ID   = 66384
ELEMENT_SET_NO = 999
REV_AT_EPOCH   = 293
BSTAR          = -.35102E-2
MEAN_MOTION_DOT = -.648944E-2
MEAN_MOTION_DDOT = 0

CCSDS_OMM_VERS = 2.0
CREATION_DATE  = 
ORIGINATOR     = 

OBJECT_NAME    = STARLINK-35659
OBJECT_ID      = 2025-257F
CENTER_NAME    = EARTH
REF_FRAME      = TEME
TIME_SYSTEM    = UTC
MEAN_ELEMENT_THEORY = SGP/SGP4

EPOCH          = 2025-11-20T13:07:55.467264
MEAN_MOTION    = 15.81343160
ECCENTRICITY   = .0000678
INCLINATION    = 53.1530
RA_OF_ASC_NODE = 11.0837
ARG_OF_PERICENTER = 49.0636
MEAN_ANOMALY   = 311.0445

EPHEMERIS_TYPE = 0
CLASSIFICATION_TYPE = U
NORAD_CAT_ID   = 66385
ELEMENT_SET_NO = 999
REV_AT_EPOCH   = 292
BSTAR          = -.26824E-2
MEAN_MOTION_DOT = -.510977E-2
MEAN_MOTION_DDOT = 0

CCSDS_OMM_VERS = 2.0
CREATION_DATE  = 
ORIGINATOR     = 

OBJECT_NAME    = STARLINK-35651
OBJECT_ID      = 2025-257G
CENTER_NAME    = EARTH
REF_FRAME      = TEME
TIME_SYSTEM    = UTC
MEAN_ELEMENT_THEORY = SGP/SGP4

EPOCH          = 2025-11-20T14:37:09.475680
MEAN_MOTION    = 15.80980758
ECCENTRICITY   = .0000358
INCLINATION    = 53.1528
RA_OF_ASC_NODE = 10.7585
ARG_OF_PERICENTER = 68.9030
MEAN_ANOMALY   = 291.2030

EPHEMERIS_TYPE = 0
CLASSIFICATION_TYPE = U
NORAD_CAT_ID   = 66386
ELEMENT_SET_NO = 999
REV_AT_EPOCH   = 293
BSTAR          = -.34438E-2
MEAN_MOTION_DOT = -.635679E-2
MEAN_MOTION_DDOT = 0

CCSDS_OMM_VERS = 2.0
CREATION_DATE  = 
ORIGINATOR     = 

OBJECT_NAME    = STARLINK-35661
OBJECT_ID      = 2025-257H
CENTER_NAME    = EARTH
REF_FRAME      = TEME
TIME_SYSTEM    = UTC
MEAN_ELEMENT_THEORY = SGP/SGP4

EPOCH          = 2025-11-20T14:36:34.622784
MEAN_MOTION    = 15.80955949
ECCENTRICITY   = .0000824
INCLINATION    = 53.1532
RA_OF_ASC_NODE = 10.7562
ARG_OF_PERICENTER = 90.2114
MEAN_ANOMALY   = 269.9003

EPHEMERIS_TYPE = 0
CLASSIFICATION_TYPE = U
NORAD_CAT_ID   = 66387
ELEMENT_SET_NO = 999
REV_AT_EPOCH   = 293
BSTAR          = -.35568E-2
MEAN_MOTION_DOT = -.654434E-2
MEAN_MOTION_DDOT = 0

CCSDS_OMM_VERS = 2.0
CREATION_DATE  = 
ORIGINATOR     = 

OBJECT_NAME    = STARLINK-35647
OBJECT_ID      = 2025-257J
CENTER_NAME    = EARTH
REF_FRAME      = TEME
TIME_SYSTEM    = UTC
MEAN_ELEMENT_THEORY = SGP/SGP4

EPOCH          = 2025-11-20T14:35:55.616640
MEAN_MOTION    = 15.81032677
ECCENTRICITY   = .0000387
INCLINATION    = 53.1529
RA_OF_ASC_NODE = 10.7528
ARG_OF_PERICENTER = 254.1704
MEAN_ANOMALY   = 105.9276

EPHEMERIS_TYPE = 0
CLASSIFICATION_TYPE = U
NORAD_CAT_ID   = 66388
ELEMENT_SET_NO = 999
REV_AT_EPOCH   = 293
BSTAR          = -.20239E-2
MEAN_MOTION_DOT = -.385643E-2
MEAN_MOTION_DDOT = 0

