PAYLOAD ADAPTER         
1 66377U 25255B   25324.78096426  .00035082  00000+0  80194-3 0  9998
2 66377  52.9971 282.3247 0014245 330.6895  29.3309 15.42428796  1827
SHIYAN-32 02            
1 66378U 25255C   25324.71416205  .00037400  00000+0  84574-3 0  9995
2 66378  52.9984 282.6203 0013646 334.4828  25.5500 15.42729505  1811
SHIYAN-32 03            
1 66379U 25255D   25324.58747911  .00018836  00000+0  44153-3 0  9993
2 66379  52.9976 283.2539 0015048 333.1783  26.8441 15.42031369  1818
STARLINK-35139          
1 66380U 25257A   25324.61172992 -.00406542  00000+0 -21077-2 0  9998
2 66380  53.1536  10.7780 0000725  79.4407 280.6697 15.81347447  2875
STARLINK-35158          
1 66381U 25257B   25324.10553901  .00726447  00000+0  28067-2 0  9999
2 66381  53.1531  13.3095 0001581  85.8181 274.3024 15.84875027  2855
STARLINK-35639          
1 66382U 25257C   25324.67424160 -.00508529  00000+0 -26999-2 0  9999
2 66382  53.1531  10.4556 0000334  68.3805 291.7253 15.81095725  2943
STARLINK-35690          
1 66383U 25257D   25324.67320067 -.00512128  00000+0 -27437-2 0  9999
2 66383  53.1530  10.4476 0001073  96.2991 263.8154 15.80906126  2946
STARLINK-35662          
1 66384U 25257E   25324.60960083 -.00648944  00000+0 -35102-2 0  9995
2 66384  53.1528  10.7618 0000737 107.9006 252.2097 15.81044888  2934
STARLINK-35659          
1 66385U 25257F   25324.54716976 -.00510977  00000+0 -26824-2 0  9994
2 66385  53.1530  11.0837 0000678  49.0636 311.0445 15.81343160  2929
STARLINK-35651          
1 66386U 25257G   25324.60913745 -.00635679  00000+0 -34438-2 0  9992
2 66386  53.1528  10.7585 0000358  68.9030 291.2030 15.80980758  2935
STARLINK-35661          
1 66387U 25257H   25324.60873406 -.00654434  00000+0 -35568-2 0  9997
2 66387  53.1532  10.7562 0000824  90.2114 269.9003 15.80955949  2931
STARLINK-35647          
1 66388U 25257J   25324.60828260 -.00385643  00000+0 -20239-2 0  9998
2 66388  53.1529  10.7528 0000387 254.1704 105.9276 15.81032677  2936
